GLOBALSTAR M069         
1 31573U 07020C   26154.55258458 -.00000067  00000+0  23483-3 0  9994
2 31573  52.0041 290.7170 0002584 120.2368 322.1328 12.23470840877138
GLOBALSTAR M072         
1 31574U 07020D   26154.69807870 -.00000097  00000+0 -17694-3 0  9999
2 31574  51.9903 136.1567 0001364 293.8515  56.7675 11.91658458873366
GLOBALSTAR M066         
1 32265U 07048C   26153.05186613 -.00000089  00000+0  44826-4 0  9999
2 32265  51.9577 101.3603 0005186  11.0650  70.8114 12.30389210858361
GLOBALSTAR M079         
1 37188U 10054A   26154.28854841 -.00000118  00000+0 -76951-4 0  9998
2 37188  52.0011 150.9791 0000367 344.1024 120.3313 12.62265966720797
GLOBALSTAR M074         
1 37189U 10054B   26154.31512747 -.00000120  00000+0 -90842-4 0  9997
2 37189  51.9986 150.1654 0000259  47.5072  57.8723 12.62268420721400
GLOBALSTAR M076         
1 37190U 10054C   26154.17747591 -.00000105  00000+0 -87900-5 0  9995
2 37190  52.0010 150.7859 0000387  24.1889  55.7837 12.62261819721109
GLOBALSTAR M077         
1 37191U 10054D   26154.70301275 -.00000059  00000+0  34246-3 0  9990
2 37191  51.9941 213.5218 0002958 148.4860   3.7641 11.67547589719561
GLOBALSTAR M075         
1 37192U 10054E   26154.80216435 -.00000097  00000+0  35971-4 0  9994
2 37192  51.9925 190.9481 0000175 153.8116 185.8286 12.62267381720246
GLOBALSTAR M073         
1 37193U 10054F   26154.19657189 -.00000113  00000+0 -50543-4 0  9994
2 37193  52.0047 106.8787 0000629  18.8032  86.3749 12.62262106722162
GLOBALSTAR M083         
1 37739U 11033A   26152.39730010 -.00000093  00000+0  62633-4 0  9992
2 37739  51.9867  60.6056 0000705  37.5726 108.8449 12.62262795690957
GLOBALSTAR M088         
1 37740U 11033B   26154.65317646 -.00000091  00000+0  71204-4 0  9993
2 37740  52.0228 320.1334 0000878 105.9125 334.6962 12.62268486686787
GLOBALSTAR M091         
1 37741U 11033C   26154.58744399 -.00000084  00000+0  11308-3 0  9995
2 37741  52.0005 283.3180 0000583 129.6389 313.2744 12.62263530687561
GLOBALSTAR M085         
1 37742U 11033D   26152.26726767 -.00000069  00000+0  19580-3 0  9991
2 37742  52.0122 241.6600 0000350 160.3418 234.3293 12.62263613687781
GLOBALSTAR M081         
1 37743U 11033E   26154.52646269 -.00000071  00000+0  18541-3 0  9990
2 37743  51.9951 237.2362 0000387 127.5431 337.7826 12.62264700688213
GLOBALSTAR M089         
1 37744U 11033F   26154.32274594 -.00000086  00000+0  98037-4 0  9992
2 37744  51.9908 192.0182 0000404 110.2464 329.6617 12.62266926689030
GLOBALSTAR M084         
1 38040U 11080A   26152.99695650 -.00000092  00000+0  63969-4 0  9998
2 38040  52.0020  63.5254 0000930  63.2579  49.0697 12.62267355666849
GLOBALSTAR M080         
1 38041U 11080B   26153.49690972 -.00000090  00000+0  75164-4 0  9995
2 38041  52.0070  63.7164 0000200  67.5328 287.7322 12.62269198667020
GLOBALSTAR M082         
1 38042U 11080C   26153.84797462 -.00000086  00000+0  99674-4 0  9994
2 38042  52.0097  18.1478 0000505  82.4288 359.0468 12.62269703667780
GLOBALSTAR M092         
1 38043U 11080D   26153.19309262 -.00000115  00000+0 -62969-4 0  9991
2 38043  52.0076 110.5371 0000395  42.7617  60.4222 12.62266770666151
GLOBALSTAR M090         
1 38044U 11080E   26154.93130787 -.00000090  00000+0  78936-4 0  9991
2 38044  52.0145   8.8022 0000772  72.7186 132.9497 12.62268844668036
GLOBALSTAR M086         
1 38045U 11080F   26154.06385596 -.00000090  00000+0  74831-4 0  9996
2 38045  51.9919  11.3954 0001565  43.1345  78.7981 12.62286398667877
GLOBALSTAR M097         
1 39072U 13005A   26154.54301187 -.00000096  00000+0  45739-4 0  9994
2 39072  52.0054 284.8688 0000525 119.2141 240.8779 12.62251298615180
GLOBALSTAR M093         
1 39073U 13005B   26154.51642428 -.00000079  00000+0  13857-3 0  9994
2 39073  52.0114 278.2921 0000380 106.3439 253.7470 12.62265502615130
GLOBALSTAR M094         
1 39074U 13005C   26154.27880869 -.00000092  00000+0  67998-4 0  9992
2 39074  51.9936 193.1470 0000074 278.8437  81.2421 12.62268454616712
GLOBALSTAR M096         
1 39075U 13005D   26154.52979780 -.00000066  00000+0  21276-3 0  9991
2 39075  52.0068 241.1731 0000311 153.3238 206.7645 12.62265225615663
GLOBALSTAR M078         
1 39076U 13005E   26153.79009236 -.00000100  00000+0  22146-4 0  9997
2 39076  51.9888 327.4521 0000688 179.3666 180.7202 12.62260079614196
GLOBALSTAR M095         
1 39077U 13005F   26154.60872252 -.00000102  00000+0  84576-5 0  9993
2 39077  52.0094 322.5447 0000429 118.3455 241.7455 12.62263243614153
GLOBALSTAR M087         
1 52888U 22064A   26154.14692295 -.00000116  00000+0 -66720-4 0  9995
2 52888  51.9983 105.1964 0000444   3.2600 356.8270 12.62268779189365
